      2.10          N: GNSS NAV DATA                        RINEX VERSION / TYPE
fic2rin                                 04/01/2023 00:17:38 PGM / RUN BY / DATE
                                                            END OF HEADER
24 23  4  1  0  0  0.0 -.134114176035D-03 -.148929757415D-10  .000000000000D+00
     .930000000000D+02  .202812500000D+02  .487734601818D-08 -.294866692475D+01
     .102259218693D-05  .137740037171D-01  .899285078049D-05  .515365819740D+04
     .518400000000D+06  .651925802231D-07  .147802443468D+00 -.158324837685D-06
     .934438751970D+00  .190593750000D+03  .888575149590D+00 -.790604360416D-08
     .407516974718D-09  .100000000000D+01  .225500000000D+04  .000000000000D+00
     .240000000000D+01  .000000000000D+00  .232830643654D-08  .930000000000D+02
     .511200000000D+06  .400000000000D+01
27 23  4  1  0  0  0.0  .687637366354D-04 -.818545231596D-11  .000000000000D+00
     .950000000000D+02  .163125000000D+02  .429875048878D-08 -.101269857281D+01
     .102259218693D-05  .115357280010D-01  .836141407490D-05  .515366658974D+04
     .518400000000D+06  .247731804848D-06  .232621161989D+01  .119209289551D-06
     .968239706796D+00  .221187500000D+03  .718747304104D+00 -.791890128260D-08
    -.205722854897D-09  .100000000000D+01  .225500000000D+04  .000000000000D+00
     .340000000000D+01  .000000000000D+00  .186264514923D-08  .950000000000D+02
     .511200000000D+06  .400000000000D+01
19 23  4  1  0  0  0.0  .297578983009D-03  .511590769747D-11  .000000000000D+00
     .920000000000D+02  .313125000000D+02  .415017287136D-08  .109364828014D+01
     .149942934513D-05  .924272823613D-02  .931881368160D-05  .515361782455D+04
     .518400000000D+06  .143423676491D-06  .243608298066D+01 -.147148966789D-06
     .974000324166D+00  .206406250000D+03  .226235164842D+01 -.779782481070D-08
    -.211437378644D-09  .100000000000D+01  .225500000000D+04  .000000000000D+00
     .240000000000D+01  .000000000000D+00 -.153668224812D-07  .920000000000D+02
     .511200000000D+06  .400000000000D+01
17 23  4  1  0  0  0.0  .708375591785D-03  .181898940355D-11  .000000000000D+00
     .102000000000D+03  .394375000000D+02  .416838791580D-08 -.107109465205D+01
     .208802521229D-05  .135266643483D-01  .969320535660D-05  .515374566841D+04
     .518400000000D+06 -.284984707832D-06  .239150487365D+01  .838190317154D-07
     .974940389472D+00  .207250000000D+03 -.141300401221D+01 -.797854662421D-08
    -.192865176466D-09  .100000000000D+01  .225500000000D+04  .000000000000D+00
     .340000000000D+01  .000000000000D+00 -.111758708954D-07  .102000000000D+03
     .511200000000D+06  .400000000000D+01
13 23  4  1  0  0  0.0  .499017536640D-03  .568434188608D-11  .000000000000D+00
     .130000000000D+03 -.717500000000D+02  .400730977768D-08 -.144996193401D+01
    -.372342765331D-05  .683390873019D-02  .101998448372D-04  .515367359352D+04
     .518400000000D+06  .210478901863D-06 -.674579203297D+00  .260770320892D-07
     .969722792664D+00  .187531250000D+03  .918428276613D+00 -.767389107694D-08
    -.639312344211D-10  .100000000000D+01  .225500000000D+04  .000000000000D+00
     .340000000000D+01  .000000000000D+00 -.111758708954D-07  .130000000000D+03
     .511200000000D+06  .400000000000D+01
11 23  4  1  0  0  0.0 -.147786922753D-03 -.120508047985D-10  .000000000000D+00
     .100000000000D+02  .699687500000D+02  .454947521819D-08 -.172356944991D+01
     .379234552383D-05  .750609440729D-03  .574253499508D-05  .515372555542D+04
     .518400000000D+06  .428408384323D-07 -.285582504224D+01  .186264514923D-08
     .965338225298D+00  .272062500000D+03 -.273870688124D+01 -.818534095231D-08
     .232866842696D-09  .100000000000D+01  .225500000000D+04  .000000000000D+00
     .240000000000D+01  .000000000000D+00 -.884756445885D-08  .522000000000D+03
     .511200000000D+06  .400000000000D+01
23 23  4  1  0  0  0.0  .139144249260D-04  .238742359215D-11  .000000000000D+00
     .450000000000D+02 -.366250000000D+02  .450054460860D-08  .214071745638D+01
    -.187195837498D-05  .303483905736D-02  .320747494698D-05  .515365095520D+04
     .518400000000D+06 -.745058059692D-08 -.188881676869D+01  .614672899246D-07
     .972744299276D+00  .326343750000D+03 -.308722339534D+01 -.819105547605D-08
    -.102861427448D-09  .100000000000D+01  .225500000000D+04  .000000000000D+00
     .240000000000D+01  .000000000000D+00 -.838190317154D-08  .301000000000D+03
     .511200000000D+06  .400000000000D+01
28 23  4  1  0  0  0.0  .563478097320D-04  .795807864051D-11  .000000000000D+00
     .560000000000D+02  .232812500000D+02  .445304262996D-08  .855261483999D+00
     .119581818581D-05  .870938180014D-03  .875815749168D-05  .515365162277D+04
     .518400000000D+06  .186264514923D-07  .199492191708D+00 -.353902578354D-07
     .962020164710D+00  .212593750000D+03  .170712306300D+01 -.793711632704D-08
     .325013538118D-09  .100000000000D+01  .225500000000D+04  .000000000000D+00
     .240000000000D+01  .000000000000D+00 -.139698386192D-08  .824000000000D+03
     .511200000000D+06  .400000000000D+01
18 23  4  1  0  0  0.0 -.204203184694D-03 -.167119651451D-10  .000000000000D+00
     .233000000000D+03  .673125000000D+02  .431089385175D-08 -.309779667818D+01
     .353157520294D-05  .303733081091D-02  .645965337753D-05  .515368314362D+04
     .518400000000D+06 -.689178705215D-07 -.288827181477D+01  .111758708954D-07
     .973846480775D+00  .263781250000D+03 -.313020973775D+01 -.793747348477D-08
     .219294848796D-09  .100000000000D+01  .225500000000D+04  .000000000000D+00
     .240000000000D+01  .000000000000D+00 -.838190317154D-08  .100100000000D+04
     .511200000000D+06  .400000000000D+01
14 23  4  1  0  0  0.0  .117304734886D-04  .109139364213D-10  .000000000000D+00
     .157000000000D+03  .129062500000D+02  .504199573365D-08  .170335726609D+01
     .590458512306D-06  .288855843246D-02  .553764402866D-05  .515366810799D+04
     .518400000000D+06  .204890966415D-07  .131423071519D+01  .633299350739D-07
     .949071857772D+00  .264687500000D+03 -.306987742645D+01 -.829641700764D-08
    -.150363406097D-09  .100000000000D+01  .225500000000D+04  .000000000000D+00
     .240000000000D+01  .000000000000D+00 -.791624188423D-08  .669000000000D+03
     .511200000000D+06  .400000000000D+01
22 23  4  1  0  0  0.0  .455840025097D-03  .704858393874D-11  .000000000000D+00
     .420000000000D+02 -.597500000000D+02  .433553773541D-08 -.125036377876D+01
    -.301748514175D-05  .141818679404D-01  .934302806854D-05  .515361516762D+04
     .518400000000D+06  .447034835815D-07 -.729210980736D+00  .355765223503D-06
     .962520886458D+00  .201687500000D+03 -.181564762334D+01 -.798247535928D-08
    -.127505311108D-09  .100000000000D+01  .225500000000D+04  .000000000000D+00
     .240000000000D+01  .630000000000D+02 -.791624188423D-08  .420000000000D+02
     .511200000000D+06  .400000000000D+01
21 23  4  1  0  0  0.0  .154314097017D-03  .000000000000D+00  .000000000000D+00
     .830000000000D+02  .517187500000D+02  .465447959204D-08 -.108312559379D+01
     .255368649960D-05  .248093588743D-01  .698119401932D-05  .515363665390D+04
     .518400000000D+06 -.268220901489D-06 -.299210077673D+01 -.219792127609D-06
     .961887191308D+00  .253437500000D+03 -.785583905717D+00 -.843106547343D-08
     .451804533758D-09  .100000000000D+01  .225500000000D+04  .000000000000D+00
     .485000000000D+01  .000000000000D+00 -.102445483208D-07  .830000000000D+02
     .511200000000D+06  .400000000000D+01
27 23  3 31 23 59 44.0  .687642022967D-04 -.818545231596D-11  .000000000000D+00
     .290000000000D+02  .163125000000D+02  .429839333105D-08 -.101503227679D+01
     .102259218693D-05  .115357242757D-01  .836141407490D-05  .515366658974D+04
     .518384000000D+06  .247731804848D-06  .232621173107D+01  .119209289551D-06
     .968239714111D+00  .221187500000D+03  .718747204626D+00 -.791890128260D-08
    -.206080012631D-09  .100000000000D+01  .225500000000D+04  .000000000000D+00
     .240000000000D+01  .000000000000D+00  .186264514923D-08  .290000000000D+02
     .513030000000D+06  .400000000000D+01
17 23  3 31 23 59 44.0  .708379782736D-03  .193267624127D-11  .000000000000D+00
     .300000000000D+01  .394375000000D+02  .416838791580D-08 -.107342807515D+01
     .208988785744D-05  .135266628349D-01  .969506800175D-05  .515374567413D+04
     .518384000000D+06 -.283122062683D-06  .239150502141D+01  .838190317154D-07
     .974940374843D+00  .207250000000D+03 -.141300425213D+01 -.797854662421D-08
    -.192865176466D-09  .100000000000D+01  .225500000000D+04  .000000000000D+00
     .240000000000D+01  .000000000000D+00 -.111758708954D-07  .300000000000D+01
     .514200000000D+06  .400000000000D+01
21 23  3 31 23 59 44.0  .154316890985D-03  .000000000000D+00  .000000000000D+00
     .100000000000D+01  .517187500000D+02  .465412243431D-08 -.108545941479D+01
     .255368649960D-05  .248093610862D-01  .698305666447D-05  .515363665199D+04
     .518384000000D+06 -.268220901489D-06 -.299210067433D+01 -.219792127609D-06
     .961887181068D+00  .253437500000D+03 -.785583889625D+00 -.843106547343D-08
     .451804533758D-09  .100000000000D+01  .225500000000D+04  .000000000000D+00
     .240000000000D+01  .000000000000D+00 -.102445483208D-07  .100000000000D+01
     .516450000000D+06  .400000000000D+01
